GLOBALSTAR M084         
1 38040U 11080A   25145.97453016 -.00000105  00000+0 -89189-5 0  9994
2 38040  51.9990 116.0958 0000570  14.4917  25.9705 12.62266341619869
GLOBALSTAR M080         
1 38041U 11080B   25145.94449383 -.00000110  00000+0 -33640-4 0  9990
2 38041  52.0040 117.7708 0000626  87.1804 306.6700 12.62263158619983
GLOBALSTAR M082         
1 38042U 11080C   25145.80045321 -.00000118  00000+0 -76936-4 0  9993
2 38042  52.0082  73.6676 0000747  89.6952 299.6495 12.62266175620671
GLOBALSTAR M092         
1 38043U 11080D   25145.80519444 -.00000108  00000+0 -25350-4 0  9999
2 38043  52.0064 164.0303 0000136  73.0914  97.9512 12.62264376619129
GLOBALSTAR M090         
1 38044U 11080E   25145.82881389 -.00000111  00000+0 -41780-4 0  9991
2 38044  51.9895  67.4170 0000558  75.9053 322.8763 12.62270286620791
GLOBALSTAR M086         
1 38045U 11080F   25145.94597903 -.00000115  00000+0 -61522-4 0  9991
2 38045  51.9908  67.6094 0000537 301.6699 150.2537 12.62271066620751
GLOBALSTAR M097         
1 39072U 13005A   25145.79395690 -.00000088  00000+0  88124-4 0  9998
2 39072  52.0064 342.5983 0000692 107.8844 252.2099 12.62272145567989
GLOBALSTAR M093         
1 39073U 13005B   25145.84667326 -.00000089  00000+0  84586-4 0  9992
2 39073  51.9828 335.7760 0000755 109.8921 250.2027 12.62264796567949
